{
  "norad_id": 63208,
  "name": "SUPERVIEW NEO-3 02",
  "history": [
    {
      "epoch": "2026-03-28T21:46:40.922112Z",
      "apogee_km": 496.7935022021993,
      "perigee_km": 493.3120941056386,
      "latitude_deg": 3.25712816149407e-05,
      "longitude_deg": 14.667658960358365,
      "height_km": 498.47967973718767,
      "semi_major_axis_km": 6873.189798153919,
      "eccentricity": 0.00025326,
      "inclination_deg": 97.4545,
      "raan_deg": 167.6593,
      "arg_perigee_deg": 101.1674,
      "mean_anomaly_deg": 258.9848,
      "mean_motion_rev_day": 15.23579978
    },
    {
      "epoch": "2026-03-29T05:39:33.219360Z",
      "apogee_km": 496.75314073921436,
      "perigee_km": 493.27257765051945,
      "latitude_deg": -4.046814334180169e-05,
      "longitude_deg": -103.54760577506983,
      "height_km": 498.414387242018,
      "semi_major_axis_km": 6873.149859194867,
      "eccentricity": 0.0002532,
      "inclination_deg": 97.4546,
      "raan_deg": 167.9856,
      "arg_perigee_deg": 100.3202,
      "mean_anomaly_deg": 259.832,
      "mean_motion_rev_day": 15.23593258
    },
    {
      "epoch": "2026-03-30T05:18:08.993088Z",
      "apogee_km": 496.6791286580583,
      "perigee_km": 493.1669949664729,
      "latitude_deg": 5.6348887007876996e-05,
      "longitude_deg": -98.18886954565966,
      "height_km": 498.2757430396076,
      "semi_major_axis_km": 6873.060061812265,
      "eccentricity": 0.0002555,
      "inclination_deg": 97.4547,
      "raan_deg": 168.9644,
      "arg_perigee_deg": 98.6126,
      "mean_anomaly_deg": 261.5401,
      "mean_motion_rev_day": 15.23623117
    },
    {
      "epoch": "2026-03-30T06:52:43.307904Z",
      "apogee_km": 496.6735181948261,
      "perigee_km": 493.1594634060493,
      "latitude_deg": -6.646219138036379e-05,
      "longitude_deg": -121.83126406345497,
      "height_km": 498.26648075556545,
      "semi_major_axis_km": 6873.053490800437,
      "eccentricity": 0.00025564,
      "inclination_deg": 97.4547,
      "raan_deg": 169.0297,
      "arg_perigee_deg": 98.5185,
      "mean_anomaly_deg": 261.6341,
      "mean_motion_rev_day": 15.23625302
    },
    {
      "epoch": "2026-03-30T14:45:34.805952Z",
      "apogee_km": 496.6408141006723,
      "perigee_km": 493.1321356167564,
      "latitude_deg": 5.039276048808943e-05,
      "longitude_deg": 119.95678590395686,
      "height_km": 498.22506750036996,
      "semi_major_axis_km": 6873.0234748587145,
      "eccentricity": 0.00025525,
      "inclination_deg": 97.4547,
      "raan_deg": 169.356,
      "arg_perigee_deg": 98.1556,
      "mean_anomaly_deg": 261.9971,
      "mean_motion_rev_day": 15.23635283
    }
  ]
}